FLOCK 4BE-27            
1 60513U 24149AX  26156.45549432  .00008707  00000+0  26510-3 0  9999
2 60513  97.3822 238.3029 0003527   8.6721 351.4582 15.34233363100345
FLOCK 4BE-9             
1 60514U 24149AY  26156.46386512  .00014803  00000+0  36755-3 0  9995
2 60514  97.3788 240.6250 0002141  10.1464 349.9825 15.40436769100515
FLOCK 4BE-6             
1 60516U 24149BA  26156.48348344  .00014120  00000+0  36459-3 0  9993
2 60516  97.3785 240.0250 0002653   3.1003 357.0258 15.39249089100477
FLOCK 4BE-14            
1 60517U 24149BB  26156.47778823  .00016628  00000+0  41002-3 0  9997
2 60517  97.3694 240.1457 0003482 353.2344   6.8854 15.40617989100522
FLOCK 4BE-1             
1 60518U 24149BC  26156.50584693  .00019328  00000+0  45177-3 0  9999
2 60518  97.3776 241.4096 0003174 351.0284   9.0906 15.42205268100577
FLOCK 4BE-28            
1 60519U 24149BD  26156.53743203  .00019357  00000+0  41916-3 0  9996
2 60519  97.3744 242.1297 0003224 345.9740  14.1418 15.44485980100645
CONNECTA IOT-2          
1 60522U 24149BG  26156.49223684  .00005157  00000+0  21654-3 0  9991
2 60522  97.3835 234.8159 0006669  21.0113 339.1397 15.23872926100112
PTD-R (TYVAK-0127)      
1 60523U 24149BH  26156.51081781  .00807968  32323-3  13406-2 0  9997
2 60523  97.3895 256.2759 0007672 272.7905  87.2496 16.03036816101562
CONNECTA IOT-4          
1 60524U 24149BJ  26155.74719215  .00021115  00000+0  50188-3 0  9996
2 60524  97.3795 239.9749 0004419 344.3876  15.7234 15.41677482100418
ORESAT0.5               
1 60525U 24149BK  26155.22817683  .00021128  00000+0  45575-3 0  9996
2 60525  97.3720 241.0355 0004395 335.4911  24.6128 15.44577435100475
DEIMOS                  
1 60526U 24149BL  26156.48488319  .00018607  00000+0  41245-3 0  9994
2 60526  97.3788 242.4568 0004450 338.3576  21.7484 15.43794570100644
CUAVA-2                 
1 60527U 24149BM  26156.48697986  .00012108  00000+0  34920-3 0  9999
2 60527  97.3724 237.9891 0005874 345.8906  14.2173 15.35840214100374
ERNST                   
1 60528U 24149BN  26156.53173818  .00013949  00000+0  36432-3 0  9993
2 60528  97.3804 240.1668 0005188 351.3952   8.7204 15.38891362100481
TORO                    
1 60530U 24149BQ  26156.47091924  .00002092  00000+0  18975-3 0  9995
2 60530  97.6776 231.3578 0001406  89.0647 271.0736 14.96375898 98207
HYPSO-2                 
1 60531U 24149BR  26155.18187425  .00002590  00000+0  22011-3 0  9994
2 60531  97.6836 231.6334 0002153  61.9102 298.2338 14.98737079 98106
LEMU NGE                
1 60532U 24149BS  26156.47167698  .00002410  00000+0  22617-3 0  9991
2 60532  97.6835 231.6683 0002396  81.5349 278.6143 14.94901187 98209
LEMUR-2-STELLA          
1 60533U 24149BT  26155.17398638  .00013309  00000+0  78866-3 0  9994
2 60533  97.6733 237.5749 0001851 101.9080 258.2357 15.11514040 98534
SATELIOT_2              
1 60534U 24149BU  26156.45757442  .00001696  00000+0  15502-3 0  9993
2 60534  97.6822 231.6281 0001676 101.1475 258.9935 14.96315880 98212
NIGHTJAR                
1 60535U 24149BV  26156.17662007  .00003139  00000+0  26419-3 0  9998
2 60535  97.6867 233.0501 0002609  92.9881 267.1641 14.98960975141070
SATELIOT_4              
1 60537U 24149BX  26156.47082390  .00002050  00000+0  18494-3 0  9999
2 60537  97.6727 231.1763 0003287  84.8932 275.2665 14.96621583 98227
PICO-02A021             
1 60538U 24149BY  26156.45068676  .00005031  00000+0  37700-3 0  9992
2 60538  97.6724 235.3861 0005813  63.3313 296.8507 15.03126063 97979
ICEYE-X43               
1 60539U 24149BZ  26155.68432603  .00004687  00000+0  38237-3 0  9994
2 60539  97.6758 232.8227 0007360 121.8704 238.3236 14.99901035 98243
UMBRA-09                
1 60541U 24149CB  26155.67371644  .00014594  00000+0  72885-3 0  9998
2 60541  97.6938 242.6649 0001066 319.5587  40.5566 15.17588114 98828
QPS-SAR-8 (AMATERU-IV)  
1 60542U 24149CC  26156.48483469  .00006132  00000+0  44780-3 0  9990
2 60542  97.6669 235.7339 0004506 133.5930 226.5670 15.04019043 98511
CAPELLA-15 (ACADIA-5)   
1 60544U 24149CE  26155.71757523  .00007512  00000+0  73821-3 0  9993
2 60544  97.6773 228.9328 0005261 115.3915 244.7850 14.92412120 97993
